ONEWEB-0620             
1 55161U 23004X   25015.31202612 -.00000214  00000+0 -64102-3 0  9991
2 55161  87.8908 124.3150 0002140 101.7752 258.3616 13.11414181 97952
ONEWEB-0621             
1 55162U 23004Y   25014.80506981 -.00000033  00000+0 -12891-3 0  9998
2 55162  87.8905 124.3779 0001508  98.6151 261.5148 13.11416037 97869
ONEWEB-0622             
1 55163U 23004Z   25015.34425258  .00000127  00000+0  32273-3 0  9994
2 55163  87.8908 124.2906 0002230  87.8918 272.2465 13.11417853 97934
ONEWEB-0623             
1 55164U 23004AA  25014.75379848  .00000072  00000+0  15247-3 0  9993
2 55164  87.9099 109.1829 0002008  80.8899 279.2460 13.17648115 99316
ONEWEB-0624             
1 55165U 23004AB  25014.70582531 -.00000358  00000+0 -10311-2 0  9999
2 55165  87.8875  93.8983 0001808  98.3711 261.7623 13.12443009100042
ONEWEB-0625             
1 55166U 23004AC  25015.27521551 -.00000011  00000+0 -60595-4 0  9995
2 55166  87.9097 109.0770 0001633 108.9279 251.2030 13.17647565 99374
ONEWEB-0626             
1 55167U 23004AD  25014.80947462 -.00000015  00000+0 -70672-4 0  9998
2 55167  87.9100 109.1692 0002287 117.1860 242.9505 13.17651857 99315
ONEWEB-0627             
1 55168U 23004AE  25015.25328812  .00000111  00000+0  25354-3 0  9992
2 55168  87.9101 109.0830 0002053  88.5504 271.5863 13.17648219 99376
